[{"OBJECT_NAME":"POLYITAN-1","OBJECT_ID":"2014-033AJ","EPOCH":"2026-03-09T22:27:50.258304","MEAN_MOTION":15.29568085,"ECCENTRICITY":0.00093607,"INCLINATION":98.1053,"RA_OF_ASC_NODE":86.0432,"ARG_OF_PERICENTER":127.248,"MEAN_ANOMALY":232.9614,"EPHEMERIS_TYPE":0,"CLASSIFICATION_TYPE":"U","NORAD_CAT_ID":40042,"ELEMENT_SET_NO":999,"REV_AT_EPOCH":63840,"BSTAR":0.00083772474,"MEAN_MOTION_DOT":0.00024003,"MEAN_MOTION_DDOT":0},{"OBJECT_NAME":"STARLINK-35943","OBJECT_ID":"2025-286C","EPOCH":"2026-03-09T22:26:15.278784","MEAN_MOTION":15.30211812,"ECCENTRICITY":0.00011859,"INCLINATION":53.1623,"RA_OF_ASC_NODE":357.3559,"ARG_OF_PERICENTER":104.879,"MEAN_ANOMALY":255.2342,"EPHEMERIS_TYPE":0,"CLASSIFICATION_TYPE":"U","NORAD_CAT_ID":66927,"ELEMENT_SET_NO":999,"REV_AT_EPOCH":1545,"BSTAR":0.00097628406,"MEAN_MOTION_DOT":0.00028678,"MEAN_MOTION_DDOT":0}]
